{
    "links": {
        "self": "http://www.neowsapp.com/rest/v1/neo/3837990?api_key=iIulBulltgU6a56xZRHN4H3l9WmuAYTsLGpBGhQ2"
    },
    "id": "3837990",
    "neo_reference_id": "3837990",
    "name": "(2019 BP2)",
    "designation": "2019 BP2",
    "nasa_jpl_url": "http://ssd.jpl.nasa.gov/sbdb.cgi?sstr=3837990",
    "absolute_magnitude_h": 26.6,
    "estimated_diameter": {
        "kilometers": {
            "estimated_diameter_min": 0.0127219879,
            "estimated_diameter_max": 0.0284472297
        },
        "meters": {
            "estimated_diameter_min": 12.7219878539,
            "estimated_diameter_max": 28.4472296503
        },
        "miles": {
            "estimated_diameter_min": 0.0079050743,
            "estimated_diameter_max": 0.0176762835
        },
        "feet": {
            "estimated_diameter_min": 41.7388066307,
            "estimated_diameter_max": 93.330808926
        }
    },
    "is_potentially_hazardous_asteroid": false,
    "close_approach_data": [
        {
            "close_approach_date": "2018-09-19",
            "close_approach_date_full": "2018-Sep-19 21:16",
            "epoch_date_close_approach": 1537391760000,
            "relative_velocity": {
                "kilometers_per_second": "13.6355436983",
                "kilometers_per_hour": "49087.9573138937",
                "miles_per_hour": "30501.3476987358"
            },
            "miss_distance": {
                "astronomical": "0.0808187384",
                "lunar": "31.4384892376",
                "kilometers": "12090311.120727208",
                "miles": "7512570.9678751504"
            },
            "orbiting_body": "Mars"
        },
        {
            "close_approach_date": "2019-01-20",
            "close_approach_date_full": "2019-Jan-20 18:49",
            "epoch_date_close_approach": 1548010140000,
            "relative_velocity": {
                "kilometers_per_second": "12.0471556107",
                "kilometers_per_hour": "43369.7601985524",
                "miles_per_hour": "26948.282385595"
            },
            "miss_distance": {
                "astronomical": "0.0124539817",
                "lunar": "4.8445988813",
                "kilometers": "1863089.135338979",
                "miles": "1157669.9068327502"
            },
            "orbiting_body": "Earth"
        },
        {
            "close_approach_date": "2057-02-07",
            "close_approach_date_full": "2057-Feb-07 09:04",
            "epoch_date_close_approach": 2748762240000,
            "relative_velocity": {
                "kilometers_per_second": "19.2371902282",
                "kilometers_per_hour": "69253.8848214502",
                "miles_per_hour": "43031.6708214172"
            },
            "miss_distance": {
                "astronomical": "0.2512705442",
                "lunar": "97.7442416938",
                "kilometers": "37589538.206060854",
                "miles": "23357055.9601696252"
            },
            "orbiting_body": "Earth"
        }
    ],
    "orbital_data": {
        "orbit_id": "2",
        "orbit_determination_date": "2019-02-04 07:26:08",
        "first_observation_date": "2019-01-23",
        "last_observation_date": "2019-02-04",
        "data_arc_in_days": 12,
        "observations_used": 28,
        "orbit_uncertainty": "8",
        "minimum_orbit_intersection": ".00499286",
        "jupiter_tisserand_invariant": "3.690",
        "epoch_osculation": "2458508.5",
        "eccentricity": ".5553899710093103",
        "semi_major_axis": "1.946416565137417",
        "inclination": "2.26151423640466",
        "ascending_node_longitude": "305.9709718384739",
        "orbital_period": "991.8639708256831",
        "perihelion_distance": ".8653963254537057",
        "perihelion_argument": "124.128493616495",
        "aphelion_distance": "3.027436804821129",
        "perihelion_time": "2458468.781412971965",
        "mean_anomaly": "14.41598016529381",
        "mean_motion": ".36295299616571",
        "equinox": "J2000",
        "orbit_class": {
            "orbit_class_type": "APO",
            "orbit_class_description": "Near-Earth asteroid orbits which cross the Earth’s orbit similar to that of 1862 Apollo",
            "orbit_class_range": "a (semi-major axis) > 1.0 AU; q (perihelion) < 1.017 AU"
        }
    },
    "is_sentry_object": false
}